      2.10          N: GNSS NAV DATA                        RINEX VERSION / TYPE
fic2rin                                 12/09/2024 00:59:02 PGM / RUN BY / DATE
                                                            END OF HEADER
7  24 12  8  1 59 44.0 -.164322555065D-04  .147792889038D-11  .000000000000D+00
     .450000000000D+02 -.259375000000D+01  .471948229967D-08  .343062038665D+00
    -.335276126862D-07  .188221975695D-01  .107549130917D-04  .515377070427D+04
     .718400000000D+04 -.355765223503D-06  .165717563702D+01  .244006514549D-06
     .949974824939D+00  .171250000000D+03 -.209043520503D+01 -.831713215622D-08
     .153934983439D-09  .100000000000D+01  .234400000000D+04  .000000000000D+00
     .240000000000D+01  .000000000000D+00 -.107102096081D-07  .450000000000D+02
     .000000000000D+00  .400000000000D+01
2  24 12  8  2  0  0.0 -.297131016850D-03  .875388650456D-11  .000000000000D+00
     .104000000000D+03  .541875000000D+02  .433018036939D-08 -.304536585221D+01
     .290945172310D-05  .164817759069D-01  .814534723759D-05  .515368620300D+04
     .720000000000D+04  .106170773506D-06 -.156943838479D+01  .311061739922D-06
     .966439303756D+00  .221593750000D+03 -.108400394882D+01 -.778068123946D-08
    -.571452374714D-11  .100000000000D+01  .234400000000D+04  .000000000000D+00
     .240000000000D+01  .000000000000D+00 -.176951289177D-07  .104000000000D+03
     .000000000000D+00  .400000000000D+01
5  24 12  8  2  0  0.0 -.195341650397D-03 -.113686837722D-11  .000000000000D+00
     .570000000000D+02  .150312500000D+02  .439732602342D-08 -.285439690358D+01
     .819563865662D-06  .564498000313D-02  .466220080853D-05  .515371148491D+04
     .720000000000D+04  .800937414169D-07 -.484732017320D+00 -.279396772385D-07
     .974357886214D+00  .296937500000D+03  .133421166432D+01 -.814605360154D-08
     .145720355552D-09  .100000000000D+01  .234400000000D+04  .000000000000D+00
     .240000000000D+01  .000000000000D+00 -.107102096081D-07  .570000000000D+02
     .000000000000D+00  .400000000000D+01
4  24 12  8  2  0  0.0  .492243561894D-03  .625277607469D-11  .000000000000D+00
     .181000000000D+03 -.794375000000D+02  .437732519031D-08  .279221473676D+01
    -.419281423092D-05  .320308574010D-02  .796094536781D-05  .515368570137D+04
     .720000000000D+04 -.633299350739D-07  .645324613115D+00 -.372529029846D-08
     .966406098442D+00  .229281250000D+03 -.298939762889D+01 -.800176187693D-08
    -.124290891500D-09  .100000000000D+01  .234400000000D+04  .000000000000D+00
     .240000000000D+01  .000000000000D+00 -.465661287308D-08  .437000000000D+03
     .000000000000D+00  .400000000000D+01
10 24 12  8 20  0  0.0 -.226575415581D-03 -.152340362547D-10  .000000000000D+00
     .390000000000D+02  .177812500000D+02  .402231040252D-08  .194860601407D+01
     .827014446259D-06  .100439753151D-01  .624358654022D-05  .515368331146D+04
     .720000000000D+05 -.195577740669D-06 -.433927271613D+00 -.121071934700D-06
     .987149783802D+00  .274031250000D+03 -.234831503348D+01 -.802211986778D-08
     .306441335940D-09  .100000000000D+01  .234400000000D+04  .000000000000D+00
     .240000000000D+01  .000000000000D+00  .232830643654D-08  .390000000000D+02
     .648000000000D+05  .400000000000D+01
27 24 12  8 20  0  0.0 -.343387946486D-04  .227373675443D-12  .000000000000D+00
     .650000000000D+02 -.625000000000D+00  .494377735674D-08  .649394704296D-01
     .968575477600D-07  .129701351980D-01  .584311783314D-05  .515368068695D+04
     .720000000000D+05  .204890966415D-07 -.254214339740D+01  .186264514923D-06
     .959426649411D+00  .263312500000D+03  .801833277060D+00 -.857035698977D-08
    -.450018745087D-09  .100000000000D+01  .234400000000D+04  .000000000000D+00
     .240000000000D+01  .000000000000D+00  .186264514923D-08  .650000000000D+02
     .648000000000D+05  .400000000000D+01
31 24 12  8 20  0  0.0 -.220346264541D-03  .682121026330D-12  .000000000000D+00
     .940000000000D+02 -.230312500000D+02  .465697969618D-08  .244062469029D+01
    -.121816992760D-05  .107199160848D-01  .124238431454D-04  .515360297394D+04
     .720000000000D+05 -.782310962677D-07  .167899635486D+01 -.171363353729D-06
     .953903931779D+00  .134968750000D+03  .782197895511D+00 -.786854204207D-08
     .109290266664D-09  .100000000000D+01  .234400000000D+04  .000000000000D+00
     .240000000000D+01  .000000000000D+00 -.135041773319D-07  .940000000000D+02
     .648000000000D+05  .400000000000D+01
29 24 12  8 20  0  0.0 -.557543244213D-03  .306954461848D-11  .000000000000D+00
     .570000000000D+02  .781250000000D+00  .449161566525D-08 -.958835291110D-01
    -.106170773506D-06  .286727095954D-02  .697933137417D-05  .515373455620D+04
     .720000000000D+05 -.931322574615D-08 -.245701915678D+01  .000000000000D+00
     .968622747025D+00  .248906250000D+03  .266145114593D+01 -.814355349740D-08
    -.403231081907D-09  .100000000000D+01  .234400000000D+04  .000000000000D+00
     .240000000000D+01  .000000000000D+00 -.977888703346D-08  .570000000000D+02
     .648000000000D+05  .400000000000D+01
24 24 12  8 20  0  0.0 -.474999658763D-03  .284217094304D-11  .000000000000D+00
     .790000000000D+02 -.118125000000D+02  .511449875369D-08 -.190019287464D+01
    -.774860382080D-06  .163688325556D-01  .100657343864D-04  .515369078636D+04
     .720000000000D+05  .266358256340D-06  .155615041168D+01 -.856816768646D-07
     .933738249740D+00  .165187500000D+03  .103771809708D+01 -.804283501636D-08
     .185364864048D-09  .100000000000D+01  .234400000000D+04  .000000000000D+00
     .240000000000D+01  .000000000000D+00  .232830643654D-08  .790000000000D+02
     .648000000000D+05  .400000000000D+01
16 24 12  8 20  0  0.0 -.108255539089D-03  .966338120634D-11  .000000000000D+00
     .620000000000D+02  .557187500000D+02  .495556356197D-08  .987802119455D+00
     .318698585033D-05  .143457413651D-01  .750832259655D-05  .515365775108D+04
     .720000000000D+05 -.109896063805D-06  .279044872985D+01  .117346644402D-06
     .960806185548D+00  .237156250000D+03  .859486138328D+00 -.847606734794D-08
     .167864135072D-10  .100000000000D+01  .234400000000D+04  .000000000000D+00
     .240000000000D+01  .000000000000D+00 -.107102096081D-07  .620000000000D+02
     .648000000000D+05  .400000000000D+01
32 24 12  8 20  0  0.0 -.562117435038D-03  .591171556152D-11  .000000000000D+00
     .510000000000D+02 -.659062500000D+02  .466840874368D-08  .673297280369D+00
    -.351853668690D-05  .813503004611D-02  .673718750477D-05  .515376050377D+04
     .720000000000D+05 -.117346644402D-06  .599176979338D+00  .800937414169D-07
     .963497255540D+00  .250875000000D+03 -.212515598861D+01 -.836892002768D-08
    -.140362989539D-09  .100000000000D+01  .234400000000D+04  .000000000000D+00
     .240000000000D+01  .000000000000D+00  .931322574615D-09  .510000000000D+02
     .648000000000D+05  .400000000000D+01
17 24 12  8 20  0  0.0  .527274329215D-03 -.156887836056D-10  .000000000000D+00
     .450000000000D+02 -.828125000000D+01  .470198157069D-08 -.545938176402D-01
    -.469386577606D-06  .134700718336D-01  .633299350739D-05  .515358411980D+04
     .720000000000D+05 -.169500708580D-06 -.247253725341D+01 -.145286321640D-06
     .966131372667D+00  .264437500000D+03 -.125895447845D+01 -.846035240764D-08
    -.362157942475D-09  .100000000000D+01  .234400000000D+04  .000000000000D+00
     .240000000000D+01  .000000000000D+00 -.107102096081D-07  .450000000000D+02
     .648000000000D+05  .400000000000D+01
20 24 12  8 20  0  0.0  .368058681488D-03 -.341060513165D-12  .000000000000D+00
     .320000000000D+02  .216875000000D+02  .455518974194D-08 -.163538034909D+01
     .116787850857D-05  .385128601920D-02  .618956983089D-05  .515365564728D+04
     .720000000000D+05  .596046447754D-07 -.617454856296D+00 -.484287738800D-07
     .956598066583D+00  .258531250000D+03 -.241952764731D+01 -.821891377932D-08
     .280368821344D-09  .100000000000D+01  .234400000000D+04  .000000000000D+00
     .340000000000D+01  .000000000000D+00 -.838190317154D-08  .320000000000D+02
     .648000000000D+05  .400000000000D+01
21 24 12  8 20  0  0.0  .954582355917D-04 -.102318153949D-11  .000000000000D+00
     .960000000000D+02 -.618750000000D+01  .446161441558D-08 -.191230824137D+00
    -.508502125740D-06  .257102673640D-01  .973604619503D-05  .515363034248D+04
     .720000000000D+05  .275671482086D-06 -.157831359279D+01 -.419095158577D-06
     .960678812197D+00  .197500000000D+03 -.481813080283D+00 -.842999400023D-08
    -.234652631367D-09  .100000000000D+01  .234400000000D+04  .000000000000D+00
     .340000000000D+01  .000000000000D+00 -.102445483208D-07  .960000000000D+02
     .648000000000D+05  .400000000000D+01
25 24 12  8 20  0  0.0  .498305074871D-03 -.454747350886D-12  .000000000000D+00
     .530000000000D+02  .592812500000D+02  .497699302602D-08  .259061968223D+01
     .288337469101D-05  .121844301466D-01  .720843672752D-05  .515369709015D+04
     .720000000000D+05  .540167093277D-07  .268409679157D+01 -.158324837685D-06
     .949447416639D+00  .231843750000D+03  .110246159646D+01 -.811855245601D-08
     .147506144223D-09  .100000000000D+01  .234400000000D+04  .000000000000D+00
     .240000000000D+01  .000000000000D+00  .558793544769D-08  .530000000000D+02
     .648000000000D+05  .400000000000D+01
